EUTELSAT 7B             
1 39163U 13022A   24357.83104939  .00000066  00000+0  00000+0 0  9998
2 39163   0.0645   0.9310 0004690 321.0022  76.0947  1.00271344 42529
WGS F5 (USA 243)        
1 39168U 13024A   24357.40327135 -.00000268  00000+0  00000+0 0  9998
2 39168   0.0163  15.9066 0000150 307.8465 220.3663  1.00269834 41746
SES-6                   
1 39172U 13026A   24358.13766161 -.00000242  00000+0  00000+0 0  9994
2 39172   0.0226  29.2442 0002314 254.5280 177.4582  1.00271091 42295
IRNSS-1A                
1 39199U 13034A   24341.83271314  .00000080  00000+0  00000+0 0  9991
2 39199  34.4702  71.9275 0022408 185.2473 174.0381  1.00281504 41774
MUOS-2                  
1 39206U 13036A   24357.77888753  .00000081  00000+0  00000+0 0  9994
2 39206   3.9547  42.7956 0055523 182.8611 329.5382  1.00272067 41765
ALPHASAT                
1 39215U 13038A   24357.46161737  .00000149  00000+0  00000+0 0  9993
2 39215   2.9126   5.9755 0002088 265.2031  11.3650  1.00272477 38580
INSAT-3D                
1 39216U 13038B   24358.16785498 -.00000319  00000+0  00000+0 0  9998
2 39216   0.5248  90.2341 0001797 169.0852  22.8304  1.00272464 41871
WGS F6 (USA 244)        
1 39222U 13041A   24357.64432725  .00000106  00000+0  00000+0 0  9996
2 39222   0.0196   3.3479 0000358 263.8933 281.2089  1.00269780 41639
ES'HAIL 1               
1 39233U 13044A   24358.10495789  .00000162  00000+0  00000+0 0  9994
2 39233   0.0471   3.6719 0002244 277.6373 234.0938  1.00271367 41479
GSAT-7                  
1 39234U 13044B   24358.11459564 -.00000058  00000+0  00000+0 0  9992
2 39234   0.0955  94.8229 0010163 174.1159 298.4663  1.00272099 41479
AMOS-4                  
1 39237U 13045A   24357.91542493  .00000026  00000+0  00000+0 0  9991
2 39237   0.0174 110.5619 0002857 191.3034 184.6243  1.00271575 41533
AEHF-3 (USA 246)        
1 39256U 13050A   24357.43190420  .00000045  00000+0  00000+0 0  9995
2 39256   3.9454  71.6840 0093272 176.2761 234.8072  1.00268268 40228
ASTRA 2E                
1 39285U 13056A   24357.91160229  .00000169  00000+0  00000+0 0  9997
2 39285   0.0629 332.7463 0002886 297.2626 178.5769  1.00269589 40997
FM-6                    
1 39360U 13058A   24357.36993797 -.00000001  00000+0  00000+0 0  9992
2 39360   0.0025   1.4686 0000452 193.0946 273.8726  1.00272238 40912
RADUGA-1M 3             
1 39375U 13062A   24357.98591024  .00000171  00000+0  00000+0 0  9995
2 39375   4.5842  79.0161 0001899 343.1235  59.8104  1.00272141 40700
SES-8                   
1 39460U 13071A   24358.17410265 -.00000250  00000+0  00000+0 0  9998
2 39460   0.0205 287.6362 0000609 355.7438 326.4993  1.00272018 40444
INMARSAT 5-F1           
1 39476U 13073A   24357.14980119  .00000043  00000+0  00000+0 0  9992
2 39476   0.0227  58.1859 0000256 202.3533 307.1725  1.00271631 40492
TKSAT-1 (TUPAC KATARI)  
1 39481U 13075A   24358.08262959 -.00000175  00000+0  00000+0 0  9996
2 39481   0.0414 188.4094 0003399 102.6397 103.6119  1.00271504 40423
EXPRESS-AM5             
1 39487U 13077A   24357.77040274 -.00000262  00000+0  00000+0 0  9990
2 39487   0.0127 302.6809 0002333 347.9167 218.5838  1.00273336 40935
GSAT-14                 
1 39498U 14001A   24357.18551084 -.00000062  00000+0  00000+0 0  9999
2 39498   0.0620 268.0913 0006628 357.5473 326.3668  1.00271622 39948
THAICOM 6               
1 39500U 14002A   24357.85257782 -.00000103  00000+0  00000+0 0  9992
2 39500   0.0927 104.3735 0001969 166.6713 206.2716  1.00271190 40037
TDRS 12                 
1 39504U 14004A   24357.51890267 -.00000255  00000+0  00000+0 0  9990
2 39504   3.5949   7.9491 0005490 250.9796 338.5686  1.00269706 38842
ABS-2                   
1 39508U 14006A   24357.85257782 -.00000068  00000+0  00000+0 0  9994
2 39508   0.0161 322.8604 0003590 299.5503 211.3313  1.00271962 39857
ATHENA-FIDUS            
1 39509U 14006B   24358.10739056  .00000173  00000+0  00000+0 0  9999
2 39509   0.0361 102.5043 0001026 162.2728 263.8148  1.00272106 40072
TURKSAT 4A              
1 39522U 14007A   24357.85813242  .00000164  00000+0  00000+0 0  9996
2 39522   0.0589 268.5296 0004940   5.3271 168.9589  1.00269624 39545
EXPRESS-AT1             
1 39612U 14010A   24358.11103955  .00000098  00000+0  00000+0 0  9999
2 39612   0.0187 332.5488 0000537 237.9821 337.5863  1.00272848 39626
EXPRESS-AT2             
1 39613U 14010B   24357.77031587 -.00000264  00000+0  00000+0 0  9998
2 39613   0.0181 330.4818 0001362 323.8950 214.5759  1.00269749 39073
AMAZONAS 4A             
1 39616U 14011A   24358.08523601 -.00000233  00000+0  00000+0 0  9996
2 39616   0.0513 186.1615 0004442  76.9494 145.6951  1.00272721 39440
ASTRA 5B                
1 39617U 14011B   24357.91160229  .00000155  00000+0  00000+0 0  9993
2 39617   0.0599 317.5339 0004388 312.2663 173.8136  1.00270255 39247
IRNSS-1B                
1 39635U 14017A   24355.79702104  .00000117  00000+0  00000+0 0  9995
2 39635  29.0576 249.6668 0018335 182.9758 359.3652  1.00278866 39337
LUCH-5V                 
1 39727U 14023A   24358.11850528 -.00000250  00000+0  00000+0 0  9996
2 39727   3.7764  74.6439 0004507 213.8596 301.0060  1.00269178557089
KAZSAT-3                
1 39728U 14023B   24357.44910260  .00000077  00000+0  00000+0 0  9998
2 39728   0.0296  67.4252 0000167  53.8978 190.3350  1.00271461 37023
EUTELSAT 3B             
1 39773U 14030A   24357.83104939  .00000038  00000+0  00000+0 0  9994
2 39773   0.0638  17.3927 0004699 216.2644 160.4817  1.00273212 38635
ASIASAT 8 (AMOS-7)      
1 40107U 14046A   24357.81329223 -.00000015  00000+0  00000+0 0  9993
2 40107   0.0151 296.7996 0001991 329.5859 114.3619  1.00271370 96719
ASIASAT 6               
1 40141U 14052A   24357.88799582 -.00000344  00000+0  00000+0 0  9999
2 40141   0.0272 278.1826 0000906 318.9921 294.3363  1.00272524 37648
OPTUS 10                
1 40146U 14054A   24357.65028933 -.00000130  00000+0  00000+0 0  9999
2 40146   0.0671 303.0557 0001153 312.9822 225.7648  1.00269631 37609
MEASAT-3B               
1 40147U 14054B   24357.11757023 -.00000227  00000+0  00000+0 0  9997
2 40147   0.0318  27.6631 0001613 318.5710 238.7486  1.00272652 37486
LUCH (OLYMP-K 1)        
1 40258U 14058A   24357.84215951 -.00000123  00000+0  00000+0 0  9998
2 40258   0.4932  89.0033 0004010 217.0303  70.9128  1.00271791 35567
HIMAWARI-8              
1 40267U 14060A   24357.77048962 -.00000258  00000+0  00000+0 0  9998
2 40267   0.0511 100.2797 0000593 186.1080 223.4527  1.00270593 37434
IRNSS-1C                
1 40269U 14061A   24357.83299692 -.00000145  00000+0  00000+0 0  9991
2 40269   5.1405 100.2519 0018015   5.2329   9.2876  1.00270309 37264
INTELSAT 30 (IS-30)     
1 40271U 14062A   24357.05034800 -.00000136  00000+0  00000+0 0  9997
2 40271   0.0126  24.3465 0001186 350.4969 359.3363  1.00272005  1348
ARSAT 1                 
1 40272U 14062B   24358.08567041 -.00000241  00000+0  00000+0 0  9997
2 40272   0.0164 339.6830 0002073 290.2751 141.1852  1.00272147 37464
EXPRESS-AM6             
1 40277U 14064A   24357.39567500  .00000114  00000+0  00000+0 0  9995
2 40277   0.0129 313.2483 0000415  67.9939 265.6445  1.00272578 36149
GSAT-16                 
1 40332U 14078A   24357.87271550  .00000103  00000+0  00000+0 0  9990
2 40332   0.0407 259.2650 0003013 222.8878 339.0160  1.00273530 36684
DIRECTV 14              
1 40333U 14078B   24357.61676583 -.00000108  00000+0  00000+0 0  9994
2 40333   0.0137 331.6066 0000144 191.9786  50.8720  1.00270442 36631
YAMAL 401               
1 40345U 14082A   24358.17410265 -.00000209  00000+0  00000+0 0  9999
2 40345   0.0325 248.5181 0000379 269.7347  86.5725  1.00273002 36988
ASTRA 2G                
1 40364U 14089A   24357.67674547  .00000167  00000+0  00000+0 0  9998
2 40364   0.0441 350.8158 0001289  29.7583 342.9934  1.00268901 36530
FENGYUN 2G              
1 40367U 14090A   24358.04822492 -.00000284  00000+0  00000+0 0  9990
2 40367   4.2620  79.3699 0001146 172.5839 316.9512  1.00276773 36612
MUOS-3                  
1 40374U 15002A   24357.84215951 -.00000112  00000+0  00000+0 0  9995
2 40374   3.5371  38.5671 0058460 183.2343 157.7806  1.00272463 36150
INMARSAT 5-F2           
1 40384U 15005A   24356.44215934 -.00000273  00000+0  00000+0 0  9993
2 40384   0.0221  57.8571 0000376 238.5328 258.2704  1.00272030 35557
ABS-3A                  
1 40424U 15010A   24357.38464116 -.00000011  00000+0  00000+0 0  9996
2 40424   0.0350  52.2441 0002113 144.7349  29.9255  1.00267854 35947
EUTELSAT 115 WEST B     
1 40425U 15010B   24357.36993797 -.00000008  00000+0  00000+0 0  9993
2 40425   0.0111 159.9228 0000197 159.6459 150.1300  1.00271477 35964
EXPRESS-AM7             
1 40505U 15012A   24357.85813242  .00000169  00000+0  00000+0 0  9991
2 40505   0.0195  62.6376 0002818 219.1758 159.0045  1.00274020 35573
IRNSS-1D                
1 40547U 15018A   24358.12549521 -.00000265  00000+0  00000+0 0  9998
2 40547  27.1125 249.4174 0019443 181.4961 178.2599  1.00278475 35814
BEIDOU-3S IGSO-1S       
1 40549U 15019A   24357.80837035 -.00000188  00000+0  00000+0 0  9999
2 40549  50.2225 301.9550 0034337 198.1197 338.4370  1.00262633 35637
THOR 7                  
1 40613U 15022A   24357.81390039  .00000010  00000+0  00000+0 0  9997
2 40613   0.0066  21.9538 0002527 249.7148 112.5259  1.00271332 35380
TURKMENALEM52E/MONACOSAT
1 40617U 15023A   24357.82441295  .00000121  00000+0  00000+0 0  9997
2 40617   0.0429  88.0002 0003241 188.9869 163.6760  1.00273413 35415
DIRECTV 15              
1 40663U 15026A   24357.61397503 -.00000085  00000+0  00000+0 0  9990
2 40663   0.0169  32.1914 0000640 149.2416  28.3906  1.00273066 35038
SKY MEXICO-1            
1 40664U 15026B   24357.79843566 -.00000216  00000+0  00000+0 0  9991
2 40664   0.0279  36.0843 0002560 250.2683  14.1562  1.00271861 35028
METEOSAT-11 (MSG-4)     
1 40732U 15034A   24357.81589865  .00000079  00000+0  00000+0 0  9994
2 40732   1.8471  71.7097 0001862 167.7799 155.3183  1.00268656  1789
